{
  "type": "FeatureCollection",
  "features": [
    {
      "type": "Feature",
      "properties": {
        "norad_id": 34022,
        "name": "COSMOS 2251 DEB",
        "group": "cosmos-2251-debris",
        "lat": -35.360342256947604,
        "lon": -96.75054510423969,
        "alt_km": 752.4155756552091,
        "timestamp": "2025-12-10T11:33:53.777509+00:00",
        "meta_object_name": "COSMOS 2251 DEB",
        "meta_object_id": "1993-036HH",
        "meta_epoch": "2025-12-10T03:40:59.279232",
        "meta_mean_motion": 14.38956777,
        "meta_eccentricity": 0.0022632,
        "meta_inclination": 74.0542,
        "meta_ra_of_asc_node": 275.5601,
        "meta_arg_of_pericenter": 340.9579,
        "meta_mean_anomaly": 81.6599,
        "meta_ephemeris_type": 0,
        "meta_classification_type": "U",
        "meta_norad_cat_id": 34022,
        "meta_element_set_no": 999,
        "meta_rev_at_epoch": 88158,
        "meta_bstar": 0.00038754,
        "meta_mean_motion_dot": 1.172e-05,
        "meta_mean_motion_ddot": 0,
        "tle_line1": "1 34022U 93036HH  25344.15346388  .00001172  00000+0  38754-3 0  9998",
        "tle_line2": "2 34022  74.0542 275.5601 0022632 340.9579  81.6599 14.38956777881588"
      },
      "geometry": {
        "type": "Point",
        "coordinates": [
          -96.75054510423969,
          -35.360342256947604
        ]
      }
    },
    {
      "type": "Feature",
      "properties": {
        "norad_id": 34023,
        "name": "COSMOS 2251 DEB",
        "group": "cosmos-2251-debris",
        "lat": -46.971917896561266,
        "lon": 93.79267590760118,
        "alt_km": 770.1553756815565,
        "timestamp": "2025-12-10T11:33:53.777519+00:00",
        "meta_object_name": "COSMOS 2251 DEB",
        "meta_object_id": "1993-036HJ",
        "meta_epoch": "2025-12-10T04:35:25.587168",
        "meta_mean_motion": 14.4055235,
        "meta_eccentricity": 0.00184,
        "meta_inclination": 74.0257,
        "meta_ra_of_asc_node": 256.4593,
        "meta_arg_of_pericenter": 352.5632,
        "meta_mean_anomaly": 170.5735,
        "meta_ephemeris_type": 0,
        "meta_classification_type": "U",
        "meta_norad_cat_id": 34023,
        "meta_element_set_no": 999,
        "meta_rev_at_epoch": 88177,
        "meta_bstar": 0.00051649,
        "meta_mean_motion_dot": 1.622e-05,
        "meta_mean_motion_ddot": 0,
        "tle_line1": "1 34023U 93036HJ  25344.19126837  .00001622  00000+0  51649-3 0  9996",
        "tle_line2": "2 34023  74.0257 256.4593 0018400 352.5632 170.5735 14.40552350881770"
      },
      "geometry": {
        "type": "Point",
        "coordinates": [
          93.79267590760118,
          -46.971917896561266
        ]
      }
    },
    {
      "type": "Feature",
      "properties": {
        "norad_id": 34024,
        "name": "COSMOS 2251 DEB",
        "group": "cosmos-2251-debris",
        "lat": -70.83513865879264,
        "lon": -95.26056582943552,
        "alt_km": 780.844009512306,
        "timestamp": "2025-12-10T11:33:53.777529+00:00",
        "meta_object_name": "COSMOS 2251 DEB",
        "meta_object_id": "1993-036HK",
        "meta_epoch": "2025-12-09T22:42:20.582784",
        "meta_mean_motion": 14.35391073,
        "meta_eccentricity": 0.002091,
        "meta_inclination": 74.0463,
        "meta_ra_of_asc_node": 321.1139,
        "meta_arg_of_pericenter": 12.5485,
        "meta_mean_anomaly": 20.8715,
        "meta_ephemeris_type": 0,
        "meta_classification_type": "U",
        "meta_norad_cat_id": 34024,
        "meta_element_set_no": 999,
        "meta_rev_at_epoch": 87984,
        "meta_bstar": 0.00030562,
        "meta_mean_motion_dot": 8.53e-06,
        "meta_mean_motion_ddot": 0,
        "tle_line1": "1 34024U 93036HK  25343.94607156  .00000853  00000+0  30562-3 0  9993",
        "tle_line2": "2 34024  74.0463 321.1139 0020910  12.5485  20.8715 14.35391073879841"
      },
      "geometry": {
        "type": "Point",
        "coordinates": [
          -95.26056582943552,
          -70.83513865879264
        ]
      }
    },
    {
      "type": "Feature",
      "properties": {
        "norad_id": 34026,
        "name": "COSMOS 2251 DEB",
        "group": "cosmos-2251-debris",
        "lat": 16.81093653149432,
        "lon": -13.910175065731043,
        "alt_km": 1268.0257126219049,
        "timestamp": "2025-12-10T11:33:53.777539+00:00",
        "meta_object_name": "COSMOS 2251 DEB",
        "meta_object_id": "1993-036HM",
        "meta_epoch": "2025-12-10T01:13:36.216768",
        "meta_mean_motion": 13.65302372,
        "meta_eccentricity": 0.0350778,
        "meta_inclination": 73.768,
        "meta_ra_of_asc_node": 341.7565,
        "meta_arg_of_pericenter": 212.1728,
        "meta_mean_anomaly": 208.0433,
        "meta_ephemeris_type": 0,
        "meta_classification_type": "U",
        "meta_norad_cat_id": 34026,
        "meta_element_set_no": 999,
        "meta_rev_at_epoch": 83495,
        "meta_bstar": 0.0011091,
        "meta_mean_motion_dot": 1.349e-05,
        "meta_mean_motion_ddot": 0,
        "tle_line1": "1 34026U 93036HM  25344.05111362  .00001349  00000+0  11091-2 0  9993",
        "tle_line2": "2 34026  73.7680 341.7565 0350778 212.1728 208.0433 13.65302372834953"
      },
      "geometry": {
        "type": "Point",
        "coordinates": [
          -13.910175065731043,
          16.81093653149432
        ]
      }
    },
    {
      "type": "Feature",
      "properties": {
        "norad_id": 34028,
        "name": "COSMOS 2251 DEB",
        "group": "cosmos-2251-debris",
        "lat": 28.14235838124961,
        "lon": -0.3913009133979047,
        "alt_km": 1226.1988445852812,
        "timestamp": "2025-12-10T11:33:53.777550+00:00",
        "meta_object_name": "COSMOS 2251 DEB",
        "meta_object_id": "1993-036HP",
        "meta_epoch": "2025-12-10T02:39:16.240032",
        "meta_mean_motion": 13.20620004,
        "meta_eccentricity": 0.0543781,
        "meta_inclination": 73.8833,
        "meta_ra_of_asc_node": 351.2812,
        "meta_arg_of_pericenter": 129.5756,
        "meta_mean_anomaly": 301.6435,
        "meta_ephemeris_type": 0,
        "meta_classification_type": "U",
        "meta_norad_cat_id": 34028,
        "meta_element_set_no": 999,
        "meta_rev_at_epoch": 80973,
        "meta_bstar": 0.00044984,
        "meta_mean_motion_dot": 3.8e-06,
        "meta_mean_motion_ddot": 0,
        "tle_line1": "1 34028U 93036HP  25344.11060463  .00000380  00000+0  44984-3 0  9999",
        "tle_line2": "2 34028  73.8833 351.2812 0543781 129.5756 301.6435 13.20620004809733"
      },
      "geometry": {
        "type": "Point",
        "coordinates": [
          -0.3913009133979047,
          28.14235838124961
        ]
      }
    },
    {
      "type": "Feature",
      "properties": {
        "norad_id": 34031,
        "name": "COSMOS 2251 DEB",
        "group": "cosmos-2251-debris",
        "lat": -73.98101302344276,
        "lon": 53.07365429290519,
        "alt_km": 685.312362887842,
        "timestamp": "2025-12-10T11:33:53.777560+00:00",
        "meta_object_name": "COSMOS 2251 DEB",
        "meta_object_id": "1993-036HS",
        "meta_epoch": "2025-12-08T21:03:52.943040",
        "meta_mean_motion": 14.59609955,
        "meta_eccentricity": 0.0023021,
        "meta_inclination": 74.0126,
        "meta_ra_of_asc_node": 143.0836,
        "meta_arg_of_pericenter": 263.6236,
        "meta_mean_anomaly": 221.2597,
        "meta_ephemeris_type": 0,
        "meta_classification_type": "U",
        "meta_norad_cat_id": 34031,
        "meta_element_set_no": 999,
        "meta_rev_at_epoch": 88509,
        "meta_bstar": 0.0016262,
        "meta_mean_motion_dot": 7.745e-05,
        "meta_mean_motion_ddot": 0,
        "tle_line1": "1 34031U 93036HS  25342.87769610  .00007745  00000+0  16262-2 0  9993",
        "tle_line2": "2 34031  74.0126 143.0836 0023021 263.6236 221.2597 14.59609955885095"
      },
      "geometry": {
        "type": "Point",
        "coordinates": [
          53.07365429290519,
          -73.98101302344276
        ]
      }
    },
    {
      "type": "Feature",
      "properties": {
        "norad_id": 34035,
        "name": "COSMOS 2251 DEB",
        "group": "cosmos-2251-debris",
        "lat": 40.79906083014452,
        "lon": 159.11002515646882,
        "alt_km": 740.6461390077884,
        "timestamp": "2025-12-10T11:33:53.777570+00:00",
        "meta_object_name": "COSMOS 2251 DEB",
        "meta_object_id": "1993-036HW",
        "meta_epoch": "2025-12-09T10:42:04.965984",
        "meta_mean_motion": 14.51873839,
        "meta_eccentricity": 0.00444917,
        "meta_inclination": 74.0659,
        "meta_ra_of_asc_node": 355.3329,
        "meta_arg_of_pericenter": 357.5517,
        "meta_mean_anomaly": 126.6094,
        "meta_ephemeris_type": 0,
        "meta_classification_type": "U",
        "meta_norad_cat_id": 34035,
        "meta_element_set_no": 999,
        "meta_rev_at_epoch": 87918,
        "meta_bstar": 0.0023465551,
        "meta_mean_motion_dot": 9.562e-05,
        "meta_mean_motion_ddot": 0,
        "tle_line1": "1 34035U 93036HW  25343.44589081  .00009562  00000+0  23466-2 0  9996",
        "tle_line2": "2 34035  74.0659 355.3329 0044491 357.5517 126.6094 14.51873839879183"
      },
      "geometry": {
        "type": "Point",
        "coordinates": [
          159.11002515646882,
          40.79906083014452
        ]
      }
    }
  ]
}